<?xml version="1.0" encoding="UTF-8"?><kml xmlns="http://www.opengis.net/kml/2.2"     xmlns:gx="http://www.google.com/kml/ext/2.2"     xmlns:kml="http://www.opengis.net/kml/2.2"     xmlns:atom="http://www.w3.org/2005/Atom">  <Document>    <name>Free Map Tools Radius</name>    <description>Free Map Tools Radius</description>    <gx:balloonVisibility>1</gx:balloonVisibility><StyleMap id="polystyleURL0">	<Pair>		<key>normal</key>		<styleUrl>polystyle0</styleUrl>	</Pair>	<Pair>		<key>highlight</key>		<styleUrl>polystyle0</styleUrl>	</Pair></StyleMap><Style id="polystyle0">	<LineStyle>		<color>ffffffff</color>	</LineStyle>	<PolyStyle>		<color>7f00ff00</color>	</PolyStyle></Style>    <Placemark>      <name>Radius</name>      <styleUrl>polystyle0</styleUrl>      <Polygon>        <tessellate>1</tessellate>        <outerBoundaryIs>          <LinearRing>            <coordinates>-81.42760,28.63610,0 -81.41611,28.63575,0 -81.40468,28.63469,0 -81.39336,28.63294,0 -81.38221,28.63049,0 -81.37127,28.62737,0 -81.36062,28.62359,0 -81.35029,28.61916,0 -81.34033,28.61411,0 -81.33080,28.60846,0 -81.32175,28.60224,0 -81.31320,28.59548,0 -81.30522,28.58821,0 -81.29783,28.58048,0 -81.29107,28.57230,0 -81.28498,28.56374,0 -81.27959,28.55482,0 -81.27491,28.54559,0 -81.27098,28.53609,0 -81.26781,28.52638,0 -81.26542,28.51650,0 -81.26382,28.50650,0 -81.26302,28.49642,0 -81.26302,28.48632,0 -81.26382,28.47624,0 -81.26542,28.46624,0 -81.26781,28.45636,0 -81.27098,28.44665,0 -81.27491,28.43715,0 -81.27959,28.42792,0 -81.28498,28.41900,0 -81.29107,28.41044,0 -81.29783,28.40226,0 -81.30522,28.39453,0 -81.31320,28.38726,0 -81.32175,28.38050,0 -81.33080,28.37428,0 -81.34033,28.36863,0 -81.35029,28.36358,0 -81.36062,28.35915,0 -81.37127,28.35537,0 -81.38221,28.35225,0 -81.39336,28.34980,0 -81.40468,28.34805,0 -81.41611,28.34699,0 -81.42760,28.34664,0 -81.43908,28.34699,0 -81.45052,28.34805,0 -81.46184,28.34980,0 -81.47299,28.35225,0 -81.48392,28.35537,0 -81.49458,28.35915,0 -81.50491,28.36358,0 -81.51486,28.36863,0 -81.52439,28.37428,0 -81.53345,28.38050,0 -81.54199,28.38726,0 -81.54997,28.39453,0 -81.55736,28.40226,0 -81.56412,28.41044,0 -81.57021,28.41900,0 -81.57561,28.42792,0 -81.58028,28.43715,0 -81.58421,28.44665,0 -81.58738,28.45636,0 -81.58977,28.46624,0 -81.59137,28.47624,0 -81.59217,28.48632,0 -81.59217,28.49642,0 -81.59137,28.50650,0 -81.58977,28.51650,0 -81.58738,28.52638,0 -81.58421,28.53609,0 -81.58028,28.54559,0 -81.57561,28.55482,0 -81.57021,28.56374,0 -81.56412,28.57230,0 -81.55736,28.58048,0 -81.54997,28.58821,0 -81.54199,28.59548,0 -81.53345,28.60224,0 -81.52439,28.60846,0 -81.51486,28.61411,0 -81.50491,28.61916,0 -81.49458,28.62359,0 -81.48392,28.62737,0 -81.47299,28.63049,0 -81.46184,28.63294,0 -81.45052,28.63469,0 -81.43908,28.63575,0 -81.42760,28.63610,0</coordinates>          </LinearRing>        </outerBoundaryIs>      </Polygon>    </Placemark>  </Document></kml>